[{"OBJECT_NAME":"EARTHCARE","OBJECT_ID":"2024-101A","EPOCH":"2026-03-09T21:19:57.449568","MEAN_MOTION":15.57130011,"ECCENTRICITY":0.00016468,"INCLINATION":97.0361,"RA_OF_ASC_NODE":196.6804,"ARG_OF_PERICENTER":97.4714,"MEAN_ANOMALY":262.673,"EPHEMERIS_TYPE":0,"CLASSIFICATION_TYPE":"U","NORAD_CAT_ID":59908,"ELEMENT_SET_NO":999,"REV_AT_EPOCH":10111,"BSTAR":0.00024109018,"MEAN_MOTION_DOT":0.00017396,"MEAN_MOTION_DDOT":0},{"OBJECT_NAME":"SL-8 R\/B","OBJECT_ID":"1994-061B","EPOCH":"2026-03-09T22:11:39.346944","MEAN_MOTION":14.28263907,"ECCENTRICITY":0.05977746,"INCLINATION":82.9619,"RA_OF_ASC_NODE":21.337,"ARG_OF_PERICENTER":318.8014,"MEAN_ANOMALY":36.9463,"EPHEMERIS_TYPE":0,"CLASSIFICATION_TYPE":"U","NORAD_CAT_ID":23279,"ELEMENT_SET_NO":999,"REV_AT_EPOCH":57143,"BSTAR":0.00083232798,"MEAN_MOTION_DOT":0.00016203,"MEAN_MOTION_DDOT":0}]
